GLOBALSTAR M067         
1 32263U 07048A   24193.72937802 -.00000047  00000+0  37749-3 0  9996
2 32263  51.9743 312.1238 0000539  33.1139 115.8947 12.40648958767220
GLOBALSTAR M070         
1 32264U 07048B   24193.90148479 -.00000068  00000+0  19773-3 0  9991
2 32264  51.9755  85.1335 0001029  63.6001  36.7269 12.62295580770696
GLOBALSTAR M066         
1 32265U 07048C   24193.71612740 -.00000087  00000+0  95976-4 0  9999
2 32265  51.9691 307.6607 0000792 157.0074 353.4063 12.62264865772936
GLOBALSTAR M068         
1 32266U 07048D   24193.90984300 -.00000050  00000+0  29783-3 0  9997
2 32266  51.9877 259.5132 0001280 121.8698  49.5177 12.62794141774852
GLOBALSTAR M079         
1 37188U 10054A   24193.67950896 -.00000082  00000+0  12103-3 0  9996
2 37188  52.0042  96.3449 0000483  32.1266   1.6361 12.62271611633459
GLOBALSTAR M074         
1 37189U 10054B   24193.70257817 -.00000076  00000+0  15682-3 0  9992
2 37189  52.0018  95.6513 0000670  53.8454 323.8001 12.62270125634061
GLOBALSTAR M076         
1 37190U 10054C   24193.28278253 -.00000086  00000+0  10123-3 0  9990
2 37190  52.0033  97.0685 0000802  19.6911 130.0038 12.62262568633723
GLOBALSTAR M077         
1 37191U 10054D   24193.87314630 -.00000087  00000+0  96274-4 0  9999
2 37191  52.0083  52.0296 0000856  71.8624 301.9309 12.62261284634903
